<?xml version="1.0" encoding="UTF-8" ?>
<kml xmln="http://earth.google.com/kml/2.0">
<Folder open="1">
<name></name>
<description>18.5.2026 16:14</description><Placemark>
<name></name><Style>
 <IconStyle>
 <color>ffff0000</color>
 <scale>2</scale>
  <Icon>
    <href>http://maps.google.com/mapfiles/kml/shapes/open-diamond.png</href>
  </Icon>
 </IconStyle>
</Style>
<Point>
<coordinates>-0.036583,-23.421246,24897099374860911599677729368646238774363848441856.000000</coordinates></Point>
</Placemark>
<Placemark>
<name></name><Style>
 <IconStyle>
 <color>ffff0000</color>
 <scale>2</scale>
  <Icon>
    <href>http://maps.google.com/mapfiles/kml/shapes/open-diamond.png</href>
  </Icon>
 </IconStyle>
</Style>
<Point>
<coordinates>-0.036540,-23.363491,24932047726405082172725786668155186689293575782400.000000</coordinates></Point>
</Placemark>
<Placemark>
<name></name><Style>
 <IconStyle>
 <color>ffff0000</color>
 <scale>2</scale>
  <Icon>
    <href>http://maps.google.com/mapfiles/kml/shapes/open-diamond.png</href>
  </Icon>
 </IconStyle>
</Style>
<Point>
<coordinates>-0.036497,-23.306166,24967041170817632042557157495124703701677163675648.000000</coordinates></Point>
</Placemark>
<Placemark>
<name></name><Style>
 <IconStyle>
 <color>ffff0000</color>
 <scale>2</scale>
  <Icon>
    <href>http://maps.google.com/mapfiles/kml/shapes/open-diamond.png</href>
  </Icon>
 </IconStyle>
</Style>
<Point>
<coordinates>-0.036454,-23.249087,25002598459570981911526866412539908413488394928128.000000</coordinates></Point>
</Placemark>
<Placemark>
<name></name><Style>
 <IconStyle>
 <color>ffff0000</color>
 <scale>2</scale>
  <Icon>
    <href>http://maps.google.com/mapfiles/kml/shapes/open-diamond.png</href>
  </Icon>
 </IconStyle>
</Style>
<Point>
<coordinates>-0.036412,-23.192507,25037974992853934460062563655928470883912099299328.000000</coordinates></Point>
</Placemark>
<Placemark>
<name></name><Style>
 <IconStyle>
 <color>ffff0000</color>
 <scale>2</scale>
  <Icon>
    <href>http://maps.google.com/mapfiles/kml/shapes/open-diamond.png</href>
  </Icon>
 </IconStyle>
</Style>
<Point>
<coordinates>-0.036370,-23.136203,25073812968110568328090578673947322705685453471744.000000</coordinates></Point>
</Placemark>
<Placemark>
<name></name><Style>
 <IconStyle>
 <color>ffff0000</color>
 <scale>2</scale>
  <Icon>
    <href>http://maps.google.com/mapfiles/kml/shapes/open-diamond.png</href>
  </Icon>
 </IconStyle>
</Style>
<Point>
<coordinates>-0.036328,-23.080153,25110170213514501448028217706237185457672364752896.000000</coordinates></Point>
</Placemark>
<Placemark>
<name></name><Style>
 <IconStyle>
 <color>ffff0000</color>
 <scale>2</scale>
  <Icon>
    <href>http://maps.google.com/mapfiles/kml/shapes/open-diamond.png</href>
  </Icon>
 </IconStyle>
</Style>
<Point>
<coordinates>-0.036287,-23.024373,25146995797293233024596486948680164567492430135296.000000</coordinates></Point>
</Placemark>
<Placemark>
<name></name><Style>
 <IconStyle>
 <color>ffff0000</color>
 <scale>2</scale>
  <Icon>
    <href>http://maps.google.com/mapfiles/kml/shapes/open-diamond.png</href>
  </Icon>
 </IconStyle>
</Style>
<Point>
<coordinates>-0.036245,-22.968973,25183948152150679866050419585675834341298603556864.000000</coordinates></Point>
</Placemark>
<Placemark>
<name></name><Style>
 <IconStyle>
 <color>ffff0000</color>
 <scale>2</scale>
  <Icon>
    <href>http://maps.google.com/mapfiles/kml/shapes/open-diamond.png</href>
  </Icon>
 </IconStyle>
</Style>
<Point>
<coordinates>-0.036204,-22.913672,25221877135700100466210990099022406734154945265664.000000</coordinates></Point>
</Placemark>
<Placemark>
<name></name><Style>
 <IconStyle>
 <color>ffff0000</color>
 <scale>2</scale>
  <Icon>
    <href>http://maps.google.com/mapfiles/kml/shapes/open-diamond.png</href>
  </Icon>
 </IconStyle>
</Style>
<Point>
<coordinates>-0.036163,-22.858779,25259832837627980243433883232399200805676340215808.000000</coordinates></Point>
</Placemark>
<Placemark>
<name></name><Style>
 <IconStyle>
 <color>ffff0000</color>
 <scale>2</scale>
  <Icon>
    <href>http://maps.google.com/mapfiles/kml/shapes/open-diamond.png</href>
  </Icon>
 </IconStyle>
</Style>
<Point>
<coordinates>-0.036122,-22.804217,25298039105419725613014978622017709999995588968448.000000</coordinates></Point>
</Placemark>
<Placemark>
<name></name><Style>
 <IconStyle>
 <color>ffff0000</color>
 <scale>2</scale>
  <Icon>
    <href>http://maps.google.com/mapfiles/kml/shapes/open-diamond.png</href>
  </Icon>
 </IconStyle>
</Style>
<Point>
<coordinates>-0.036081,-22.749990,25336480666937891638857042752915240405572478042112.000000</coordinates></Point>
</Placemark>
<Placemark>
<name></name><Style>
 <IconStyle>
 <color>ffff0000</color>
 <scale>2</scale>
  <Icon>
    <href>http://maps.google.com/mapfiles/kml/shapes/open-diamond.png</href>
  </Icon>
 </IconStyle>
</Style>
<Point>
<coordinates>-0.036040,-22.696023,25375374207821255684272010853107835268139113775104.000000</coordinates></Point>
</Placemark>
<Placemark>
<name></name><Style>
 <IconStyle>
 <color>ffff0000</color>
 <scale>2</scale>
  <Icon>
    <href>http://maps.google.com/mapfiles/kml/shapes/open-diamond.png</href>
  </Icon>
 </IconStyle>
</Style>
<Point>
<coordinates>-0.036000,-22.642394,25414469687926029852740412194377046920417679245312.000000</coordinates></Point>
</Placemark>
<Placemark>
<name></name><Style>
 <IconStyle>
 <color>ffff0000</color>
 <scale>2</scale>
  <Icon>
    <href>http://maps.google.com/mapfiles/kml/shapes/open-diamond.png</href>
  </Icon>
 </IconStyle>
</Style>
<Point>
<coordinates>-0.035960,-22.589043,25453950352369960255239433619607143965539134603264.000000</coordinates></Point>
</Placemark>
<Placemark>
<name></name><Style>
 <IconStyle>
 <color>ffff0000</color>
 <scale>2</scale>
  <Icon>
    <href>http://maps.google.com/mapfiles/kml/shapes/open-diamond.png</href>
  </Icon>
 </IconStyle>
</Style>
<Point>
<coordinates>-0.035920,-22.535930,25493934982947440137586182903969675898313393569792.000000</coordinates></Point>
</Placemark>
<Placemark>
<name></name><Style>
 <IconStyle>
 <color>ffff0000</color>
 <scale>2</scale>
  <Icon>
    <href>http://maps.google.com/mapfiles/kml/shapes/open-diamond.png</href>
  </Icon>
 </IconStyle>
</Style>
<Point>
<coordinates>-0.035880,-22.483068,25534376467926833348092885608615303829964426575872.000000</coordinates></Point>
</Placemark>
<Placemark>
<name></name><Style>
 <IconStyle>
 <color>ffff0000</color>
 <scale>2</scale>
  <Icon>
    <href>http://maps.google.com/mapfiles/kml/shapes/open-diamond.png</href>
  </Icon>
 </IconStyle>
</Style>
<Point>
<coordinates>-0.035840,-22.430534,25575023566025646638205714352500186808033310932992.000000</coordinates></Point>
</Placemark>
<Placemark>
<name></name><Style>
 <IconStyle>
 <color>ffff0000</color>
 <scale>2</scale>
  <Icon>
    <href>http://maps.google.com/mapfiles/kml/shapes/open-diamond.png</href>
  </Icon>
 </IconStyle>
</Style>
<Point>
<coordinates>-0.035801,-22.378263,25616071815257039577279528952436064679483909603328.000000</coordinates></Point>
</Placemark>
<Placemark>
<name></name><Style>
 <IconStyle>
 <color>ffff0000</color>
 <scale>2</scale>
  <Icon>
    <href>http://maps.google.com/mapfiles/kml/shapes/open-diamond.png</href>
  </Icon>
 </IconStyle>
</Style>
<Point>
<coordinates>-0.035761,-22.326296,25657387220725635995612705068129094075665549885440.000000</coordinates></Point>
</Placemark>
<Placemark>
<name></name><Style>
 <IconStyle>
 <color>ffff0000</color>
 <scale>2</scale>
  <Icon>
    <href>http://maps.google.com/mapfiles/kml/shapes/open-diamond.png</href>
  </Icon>
 </IconStyle>
</Style>
<Point>
<coordinates>-0.035722,-22.274467,25699502593567375984505498486098824176531998244864.000000</coordinates></Point>
</Placemark>
<Placemark>
<name></name><Style>
 <IconStyle>
 <color>ffff0000</color>
 <scale>2</scale>
  <Icon>
    <href>http://maps.google.com/mapfiles/kml/shapes/open-diamond.png</href>
  </Icon>
 </IconStyle>
</Style>
<Point>
<coordinates>-0.035683,-22.222969,25741783198771589702144245205000911776965061509120.000000</coordinates></Point>
</Placemark>
<Placemark>
<name></name><Style>
 <IconStyle>
 <color>ffff0000</color>
 <scale>2</scale>
  <Icon>
    <href>http://maps.google.com/mapfiles/kml/shapes/open-diamond.png</href>
  </Icon>
 </IconStyle>
</Style>
<Point>
<coordinates>-0.035644,-22.171803,25784209574480165832061053903673247563053354975232.000000</coordinates></Point>
</Placemark>
<Placemark>
<name></name><Style>
 <IconStyle>
 <color>ffff0000</color>
 <scale>2</scale>
  <Icon>
    <href>http://maps.google.com/mapfiles/kml/shapes/open-diamond.png</href>
  </Icon>
 </IconStyle>
</Style>
<Point>
<coordinates>-0.035605,-22.120828,25827251795357750623837386879992375354384401301504.000000</coordinates></Point>
</Placemark>
<Placemark>
<name></name><Style>
 <IconStyle>
 <color>ffff0000</color>
 <scale>2</scale>
  <Icon>
    <href>http://maps.google.com/mapfiles/kml/shapes/open-diamond.png</href>
  </Icon>
 </IconStyle>
</Style>
<Point>
<coordinates>-0.035567,-22.070129,25870611936479113965994468621791549316715153195008.000000</coordinates></Point>
</Placemark>
<Placemark>
<name></name><Style>
 <IconStyle>
 <color>ffff0000</color>
 <scale>2</scale>
  <Icon>
    <href>http://maps.google.com/mapfiles/kml/shapes/open-diamond.png</href>
  </Icon>
 </IconStyle>
</Style>
<Point>
<coordinates>-0.035529,-22.019746,25914155389586995243004597822916962046695715110912.000000</coordinates></Point>
</Placemark>
<Placemark>
<name></name><Style>
 <IconStyle>
 <color>ffff0000</color>
 <scale>2</scale>
  <Icon>
    <href>http://maps.google.com/mapfiles/kml/shapes/open-diamond.png</href>
  </Icon>
 </IconStyle>
</Style>
<Point>
<coordinates>-0.035490,-21.969583,25958193436192633817288973056055163517291215192064.000000</coordinates></Point>
</Placemark>
<Placemark>
<name></name><Style>
 <IconStyle>
 <color>ffff0000</color>
 <scale>2</scale>
  <Icon>
    <href>http://maps.google.com/mapfiles/kml/shapes/open-diamond.png</href>
  </Icon>
 </IconStyle>
</Style>
<Point>
<coordinates>-0.035452,-21.919687,26002560593059446334205222562927731410524665020416.000000</coordinates></Point>
</Placemark>
<Placemark>
<name></name><Style>
 <IconStyle>
 <color>ffff0000</color>
 <scale>2</scale>
  <Icon>
    <href>http://maps.google.com/mapfiles/kml/shapes/open-diamond.png</href>
  </Icon>
 </IconStyle>
</Style>
<Point>
<coordinates>-0.035415,-21.870154,26046920244383914423257429467993464283212197920768.000000</coordinates></Point>
</Placemark>
<Placemark>
<name></name><Style>
 <IconStyle>
 <color>ffff0000</color>
 <scale>2</scale>
  <Icon>
    <href>http://maps.google.com/mapfiles/kml/shapes/open-diamond.png</href>
  </Icon>
 </IconStyle>
</Style>
<Point>
<coordinates>-0.035377,-21.820698,26092253896605578610908587789998411655309858701312.000000</coordinates></Point>
</Placemark>
<Placemark>
<name></name><Style>
 <IconStyle>
 <color>ffff0000</color>
 <scale>2</scale>
  <Icon>
    <href>http://maps.google.com/mapfiles/kml/shapes/open-diamond.png</href>
  </Icon>
 </IconStyle>
</Style>
<Point>
<coordinates>-0.035339,-21.771544,26137776518740489458207944621764301385936668721152.000000</coordinates></Point>
</Placemark>
<Placemark>
<name></name><Style>
 <IconStyle>
 <color>ffff0000</color>
 <scale>2</scale>
  <Icon>
    <href>http://maps.google.com/mapfiles/kml/shapes/open-diamond.png</href>
  </Icon>
 </IconStyle>
</Style>
<Point>
<coordinates>-0.035302,-21.722700,26183450056814750568778085282504592978087111557120.000000</coordinates></Point>
</Placemark>
<Placemark>
<name></name><Style>
 <IconStyle>
 <color>ffff0000</color>
 <scale>2</scale>
  <Icon>
    <href>http://maps.google.com/mapfiles/kml/shapes/open-diamond.png</href>
  </Icon>
 </IconStyle>
</Style>
<Point>
<coordinates>-0.035264,-21.674149,26229323299682512032725529018574541584614138314752.000000</coordinates></Point>
</Placemark>
<Placemark>
<name></name><Style>
 <IconStyle>
 <color>ffff0000</color>
 <scale>2</scale>
  <Icon>
    <href>http://maps.google.com/mapfiles/kml/shapes/open-diamond.png</href>
  </Icon>
 </IconStyle>
</Style>
<Point>
<coordinates>-0.035227,-21.625833,26275599240528556792373605752492207719439575023616.000000</coordinates></Point>
</Placemark>
<Placemark>
<name></name><Style>
 <IconStyle>
 <color>ffff0000</color>
 <scale>2</scale>
  <Icon>
    <href>http://maps.google.com/mapfiles/kml/shapes/open-diamond.png</href>
  </Icon>
 </IconStyle>
</Style>
<Point>
<coordinates>-0.035190,-21.577681,26322522442356509499002292403260204541917605658624.000000</coordinates></Point>
</Placemark>
<Placemark>
<name></name><Style>
 <IconStyle>
 <color>ffff0000</color>
 <scale>2</scale>
  <Icon>
    <href>http://maps.google.com/mapfiles/kml/shapes/open-diamond.png</href>
  </Icon>
 </IconStyle>
</Style>
<Point>
<coordinates>-0.035154,-21.529865,26369472196460228534339580849427711414599036174336.000000</coordinates></Point>
</Placemark>
<Placemark>
<name></name><Style>
 <IconStyle>
 <color>ffff0000</color>
 <scale>2</scale>
  <Icon>
    <href>http://maps.google.com/mapfiles/kml/shapes/open-diamond.png</href>
  </Icon>
 </IconStyle>
</Style>
<Point>
<coordinates>-0.035117,-21.482289,26416785388235302070359216213697750280107433394176.000000</coordinates></Point>
</Placemark>
<Placemark>
<name></name><Style>
 <IconStyle>
 <color>ffff0000</color>
 <scale>2</scale>
  <Icon>
    <href>http://maps.google.com/mapfiles/kml/shapes/open-diamond.png</href>
  </Icon>
 </IconStyle>
</Style>
<Point>
<coordinates>-0.035081,-21.434939,26464500913750763310715218532001489834402136457216.000000</coordinates></Point>
</Placemark>
<Placemark>
<name></name><Style>
 <IconStyle>
 <color>ffff0000</color>
 <scale>2</scale>
  <Icon>
    <href>http://maps.google.com/mapfiles/kml/shapes/open-diamond.png</href>
  </Icon>
 </IconStyle>
</Style>
<Point>
<coordinates>-0.035044,-21.387783,26512741841188526531510453349180787583936947552256.000000</coordinates></Point>
</Placemark>
<Placemark>
<name></name><Style>
 <IconStyle>
 <color>ffff0000</color>
 <scale>2</scale>
  <Icon>
    <href>http://maps.google.com/mapfiles/kml/shapes/open-diamond.png</href>
  </Icon>
 </IconStyle>
</Style>
<Point>
<coordinates>-0.035008,-21.340878,26561284282878665508955366561126106655188133609472.000000</coordinates></Point>
</Placemark>
<Placemark>
<name></name><Style>
 <IconStyle>
 <color>ffff0000</color>
 <scale>2</scale>
  <Icon>
    <href>http://maps.google.com/mapfiles/kml/shapes/open-diamond.png</href>
  </Icon>
 </IconStyle>
</Style>
<Point>
<coordinates>-0.034972,-21.294376,26609558193793634184953320627968375772495053062144.000000</coordinates></Point>
</Placemark>
<Placemark>
<name></name><Style>
 <IconStyle>
 <color>ffff0000</color>
 <scale>2</scale>
  <Icon>
    <href>http://maps.google.com/mapfiles/kml/shapes/open-diamond.png</href>
  </Icon>
 </IconStyle>
</Style>
<Point>
<coordinates>-0.034936,-21.248034,26658456056981431941233420624626061674783254249472.000000</coordinates></Point>
</Placemark>
<Placemark>
<name></name><Style>
 <IconStyle>
 <color>ffff0000</color>
 <scale>2</scale>
  <Icon>
    <href>http://maps.google.com/mapfiles/kml/shapes/open-diamond.png</href>
  </Icon>
 </IconStyle>
</Style>
<Point>
<coordinates>-0.034901,-21.201896,26707810998351489375251923030134409944241425874944.000000</coordinates></Point>
</Placemark>
<Placemark>
<name></name><Style>
 <IconStyle>
 <color>ffff0000</color>
 <scale>2</scale>
  <Icon>
    <href>http://maps.google.com/mapfiles/kml/shapes/open-diamond.png</href>
  </Icon>
 </IconStyle>
</Style>
<Point>
<coordinates>-0.034865,-21.155998,26757483366890137049964864638161017248836281696256.000000</coordinates></Point>
</Placemark>
<Placemark>
<name></name><Style>
 <IconStyle>
 <color>ffff0000</color>
 <scale>2</scale>
  <Icon>
    <href>http://maps.google.com/mapfiles/kml/shapes/open-diamond.png</href>
  </Icon>
 </IconStyle>
</Style>
<Point>
<coordinates>-0.034830,-21.110284,26807683944804008737702442496495721306022905643008.000000</coordinates></Point>
</Placemark>
<Placemark>
<name></name><Style>
 <IconStyle>
 <color>ffff0000</color>
 <scale>2</scale>
  <Icon>
    <href>http://maps.google.com/mapfiles/kml/shapes/open-diamond.png</href>
  </Icon>
 </IconStyle>
</Style>
<Point>
<coordinates>-0.034794,-21.064826,26858122079926575036884122573512763152840542650368.000000</coordinates></Point>
</Placemark>
<Placemark>
<name></name><Style>
 <IconStyle>
 <color>ffff0000</color>
 <scale>2</scale>
  <Icon>
    <href>http://maps.google.com/mapfiles/kml/shapes/open-diamond.png</href>
  </Icon>
 </IconStyle>
</Style>
<Point>
<coordinates>-0.034759,-21.019722,26908418303043356017332848344678140232293198856192.000000</coordinates></Point>
</Placemark>
<Placemark>
<name></name><Style>
 <IconStyle>
 <color>ffff0000</color>
 <scale>2</scale>
  <Icon>
    <href>http://maps.google.com/mapfiles/kml/shapes/open-diamond.png</href>
  </Icon>
 </IconStyle>
</Style>
<Point>
<coordinates>-0.034725,-20.974804,26959206513319816096126040728860326268553169731584.000000</coordinates></Point>
</Placemark>
<Placemark>
<name></name><Style>
 <IconStyle>
 <color>ffff0000</color>
 <scale>2</scale>
  <Icon>
    <href>http://maps.google.com/mapfiles/kml/shapes/open-diamond.png</href>
  </Icon>
 </IconStyle>
</Style>
<Point>
<coordinates>-0.034690,-20.930087,27010431494756069132864616886085775473952612679680.000000</coordinates></Point>
</Placemark>
<Placemark>
<name></name><Style>
 <IconStyle>
 <color>ffff0000</color>
 <scale>2</scale>
  <Icon>
    <href>http://maps.google.com/mapfiles/kml/shapes/open-diamond.png</href>
  </Icon>
 </IconStyle>
</Style>
<Point>
<coordinates>-0.034655,-20.885633,27061838295821359306024001236021195815737318440960.000000</coordinates></Point>
</Placemark>
<Placemark>
<name></name><Style>
 <IconStyle>
 <color>ffff0000</color>
 <scale>2</scale>
  <Icon>
    <href>http://maps.google.com/mapfiles/kml/shapes/open-diamond.png</href>
  </Icon>
 </IconStyle>
</Style>
<Point>
<coordinates>-0.034621,-20.841357,27113756680505732508758450398680779882636844728320.000000</coordinates></Point>
</Placemark>
<Placemark>
<name></name><Style>
 <IconStyle>
 <color>ffff0000</color>
 <scale>2</scale>
  <Icon>
    <href>http://maps.google.com/mapfiles/kml/shapes/open-diamond.png</href>
  </Icon>
 </IconStyle>
</Style>
<Point>
<coordinates>-0.034586,-20.797273,27166130373272019872949281532732564475340996476928.000000</coordinates></Point>
</Placemark>
<Placemark>
<name></name><Style>
 <IconStyle>
 <color>ffff0000</color>
 <scale>2</scale>
  <Icon>
    <href>http://maps.google.com/mapfiles/kml/shapes/open-diamond.png</href>
  </Icon>
 </IconStyle>
</Style>
<Point>
<coordinates>-0.034552,-20.753524,27218375259968801459897887005245740489362791989248.000000</coordinates></Point>
</Placemark>
<Placemark>
<name></name><Style>
 <IconStyle>
 <color>ffff0000</color>
 <scale>2</scale>
  <Icon>
    <href>http://maps.google.com/mapfiles/kml/shapes/open-diamond.png</href>
  </Icon>
 </IconStyle>
</Style>
<Point>
<coordinates>-0.034518,-20.709825,27271634616574893081894822723772404129699578511360.000000</coordinates></Point>
</Placemark>
<Placemark>
<name></name><Style>
 <IconStyle>
 <color>ffff0000</color>
 <scale>2</scale>
  <Icon>
    <href>http://maps.google.com/mapfiles/kml/shapes/open-diamond.png</href>
  </Icon>
 </IconStyle>
</Style>
<Point>
<coordinates>-0.034484,-20.666483,27324663945614560966373354962212407511610772422656.000000</coordinates></Point>
</Placemark>
<Placemark>
<name></name><Style>
 <IconStyle>
 <color>ffff0000</color>
 <scale>2</scale>
  <Icon>
    <href>http://maps.google.com/mapfiles/kml/shapes/open-diamond.png</href>
  </Icon>
 </IconStyle>
</Style>
<Point>
<coordinates>-0.034450,-20.623289,27378301564114494103632000382402157085681988403200.000000</coordinates></Point>
</Placemark>
<Placemark>
<name></name><Style>
 <IconStyle>
 <color>ffff0000</color>
 <scale>2</scale>
  <Icon>
    <href>http://maps.google.com/mapfiles/kml/shapes/open-diamond.png</href>
  </Icon>
 </IconStyle>
</Style>
<Point>
<coordinates>-0.034416,-20.580372,27432013580676172725856787580285669228907620990976.000000</coordinates></Point>
</Placemark>
<Placemark>
<name></name><Style>
 <IconStyle>
 <color>ffff0000</color>
 <scale>2</scale>
  <Icon>
    <href>http://maps.google.com/mapfiles/kml/shapes/open-diamond.png</href>
  </Icon>
 </IconStyle>
</Style>
<Point>
<coordinates>-0.034383,-20.537672,27486036495747584269576859312715918700830447894528.000000</coordinates></Point>
</Placemark>
<Placemark>
<name></name><Style>
 <IconStyle>
 <color>ffff0000</color>
 <scale>2</scale>
  <Icon>
    <href>http://maps.google.com/mapfiles/kml/shapes/open-diamond.png</href>
  </Icon>
 </IconStyle>
</Style>
<Point>
<coordinates>-0.034349,-20.495066,27540888422826827691540968344127486387393526759424.000000</coordinates></Point>
</Placemark>
<Placemark>
<name></name><Style>
 <IconStyle>
 <color>ffff0000</color>
 <scale>2</scale>
  <Icon>
    <href>http://maps.google.com/mapfiles/kml/shapes/open-diamond.png</href>
  </Icon>
 </IconStyle>
</Style>
<Point>
<coordinates>-0.034316,-20.452754,27595717401000775359216165868933312286066349178880.000000</coordinates></Point>
</Placemark>
<Placemark>
<name></name><Style>
 <IconStyle>
 <color>ffff0000</color>
 <scale>2</scale>
  <Icon>
    <href>http://maps.google.com/mapfiles/kml/shapes/open-diamond.png</href>
  </Icon>
 </IconStyle>
</Style>
<Point>
<coordinates>-0.034283,-20.410579,27651185098508749158515715481180354969744653156352.000000</coordinates></Point>
</Placemark>
<Placemark>
<name></name><Style>
 <IconStyle>
 <color>ffff0000</color>
 <scale>2</scale>
  <Icon>
    <href>http://maps.google.com/mapfiles/kml/shapes/open-diamond.png</href>
  </Icon>
 </IconStyle>
</Style>
<Point>
<coordinates>-0.034250,-20.368673,27706720572292116781068568701632329912656020373504.000000</coordinates></Point>
</Placemark>
<Placemark>
<name></name><Style>
 <IconStyle>
 <color>ffff0000</color>
 <scale>2</scale>
  <Icon>
    <href>http://maps.google.com/mapfiles/kml/shapes/open-diamond.png</href>
  </Icon>
 </IconStyle>
</Style>
<Point>
<coordinates>-0.034217,-20.326929,27762778637176548687187688499312792097742150172672.000000</coordinates></Point>
</Placemark>
<Placemark>
<name></name><Style>
 <IconStyle>
 <color>ffff0000</color>
 <scale>2</scale>
  <Icon>
    <href>http://maps.google.com/mapfiles/kml/shapes/open-diamond.png</href>
  </Icon>
 </IconStyle>
</Style>
<Point>
<coordinates>-0.034184,-20.285401,27819123489711720264001403356342407954966505324544.000000</coordinates></Point>
</Placemark>
<Placemark>
<name></name><Style>
 <IconStyle>
 <color>ffff0000</color>
 <scale>2</scale>
  <Icon>
    <href>http://maps.google.com/mapfiles/kml/shapes/open-diamond.png</href>
  </Icon>
 </IconStyle>
</Style>
<Point>
<coordinates>-0.034151,-20.244145,27875503524898351968907892218317897364951246307328.000000</coordinates></Point>
</Placemark>
<Placemark>
<name></name><Style>
 <IconStyle>
 <color>ffff0000</color>
 <scale>2</scale>
  <Icon>
    <href>http://maps.google.com/mapfiles/kml/shapes/open-diamond.png</href>
  </Icon>
 </IconStyle>
</Style>
<Point>
<coordinates>-0.034119,-20.203135,27932016354253419209254036203187190808801695498240.000000</coordinates></Point>
</Placemark>
<Placemark>
<name></name><Style>
 <IconStyle>
 <color>ffff0000</color>
 <scale>2</scale>
  <Icon>
    <href>http://maps.google.com/mapfiles/kml/shapes/open-diamond.png</href>
  </Icon>
 </IconStyle>
</Style>
<Point>
<coordinates>-0.034087,-20.162346,27988767179912280269889977930731034136760496947200.000000</coordinates></Point>
</Placemark>
</Folder>
</kml>